[{"OBJECT_NAME":"POLYITAN-1","OBJECT_ID":"2014-033AJ","EPOCH":"2026-03-09T22:27:50.258304","MEAN_MOTION":15.29568085,"ECCENTRICITY":0.00093607,"INCLINATION":98.1053,"RA_OF_ASC_NODE":86.0432,"ARG_OF_PERICENTER":127.248,"MEAN_ANOMALY":232.9614,"EPHEMERIS_TYPE":0,"CLASSIFICATION_TYPE":"U","NORAD_CAT_ID":40042,"ELEMENT_SET_NO":999,"REV_AT_EPOCH":63840,"BSTAR":0.00083772474,"MEAN_MOTION_DOT":0.00024003,"MEAN_MOTION_DDOT":0},{"OBJECT_NAME":"STARLINK-34488","OBJECT_ID":"2025-137L","EPOCH":"2026-03-09T22:17:50.782272","MEAN_MOTION":15.30219235,"ECCENTRICITY":0.00014202,"INCLINATION":53.1609,"RA_OF_ASC_NODE":333.9787,"ARG_OF_PERICENTER":120.7749,"MEAN_ANOMALY":239.3392,"EPHEMERIS_TYPE":0,"CLASSIFICATION_TYPE":"U","NORAD_CAT_ID":64604,"ELEMENT_SET_NO":999,"REV_AT_EPOCH":4077,"BSTAR":0.0011443771,"MEAN_MOTION_DOT":0.00033708,"MEAN_MOTION_DDOT":0}]
